{
  "type": "FeatureCollection",
  "features": [
    {
      "type": "Feature",
      "properties": {
        "norad_id": 62876,
        "name": "QZS-6 (QZSS/PRN 200)",
        "group": "gnss",
        "lat": -0.013244531001851034,
        "lon": -131.8843271131814,
        "alt_km": 35779.831207657495,
        "timestamp": "2025-12-13T03:42:11.517917+00:00",
        "meta_object_name": "QZS-6 (QZSS/PRN 200)",
        "meta_object_id": "2025-023A",
        "meta_epoch": "2025-12-12T01:55:38.440992",
        "meta_mean_motion": 1.00274711,
        "meta_eccentricity": 0.0001723,
        "meta_inclination": 0.0297,
        "meta_ra_of_asc_node": 51.9956,
        "meta_arg_of_pericenter": 216.9775,
        "meta_mean_anomaly": 291.4551,
        "meta_ephemeris_type": 0,
        "meta_classification_type": "U",
        "meta_norad_cat_id": 62876,
        "meta_element_set_no": 999,
        "meta_rev_at_epoch": 308,
        "meta_bstar": 0,
        "meta_mean_motion_dot": -2.24e-06,
        "meta_mean_motion_ddot": 0,
        "tle_line1": "1 62876U 25023A   25346.08030603 -.00000224  00000+0  00000+0 0  9998",
        "tle_line2": "2 62876   0.0297  51.9956 0001723 216.9775 291.4551  1.00274711  3085"
      },
      "geometry": {
        "type": "Point",
        "coordinates": [
          -131.8843271131814,
          -0.013244531001851034
        ]
      }
    },
    {
      "type": "Feature",
      "properties": {
        "norad_id": 63130,
        "name": "COSMOS 2584 (704K)",
        "group": "gnss",
        "lat": -49.703343781850336,
        "lon": -67.49301809702746,
        "alt_km": 19117.507754083075,
        "timestamp": "2025-12-13T03:42:11.517931+00:00",
        "meta_object_name": "COSMOS 2584 (704K)",
        "meta_object_id": "2025-042A",
        "meta_epoch": "2025-12-08T03:39:29.178720",
        "meta_mean_motion": 2.13102925,
        "meta_eccentricity": 0.0007602,
        "meta_inclination": 64.9737,
        "meta_ra_of_asc_node": 79.3022,
        "meta_arg_of_pericenter": 215.9611,
        "meta_mean_anomaly": 144.0025,
        "meta_ephemeris_type": 0,
        "meta_classification_type": "U",
        "meta_norad_cat_id": 63130,
        "meta_element_set_no": 999,
        "meta_rev_at_epoch": 597,
        "meta_bstar": 0,
        "meta_mean_motion_dot": -1.2e-07,
        "meta_mean_motion_ddot": 0,
        "tle_line1": "1 63130U 25042A   25342.15242105 -.00000012  00000+0  00000+0 0  9994",
        "tle_line2": "2 63130  64.9737  79.3022 0007602 215.9611 144.0025  2.13102925  5976"
      },
      "geometry": {
        "type": "Point",
        "coordinates": [
          -67.49301809702746,
          -49.703343781850336
        ]
      }
    },
    {
      "type": "Feature",
      "properties": {
        "norad_id": 64202,
        "name": "GPS BIII-8  (PRN 21)",
        "group": "gnss",
        "lat": 23.770521448438267,
        "lon": 56.524526005267155,
        "alt_km": 20177.662396161868,
        "timestamp": "2025-12-13T03:42:11.517943+00:00",
        "meta_object_name": "GPS BIII-8  (PRN 21)",
        "meta_object_id": "2025-116A",
        "meta_epoch": "2025-12-12T02:49:55.740000",
        "meta_mean_motion": 2.00558325,
        "meta_eccentricity": 0.00055602,
        "meta_inclination": 55.1053,
        "meta_ra_of_asc_node": 38.6656,
        "meta_arg_of_pericenter": 307.8472,
        "meta_mean_anomaly": 53.3313,
        "meta_ephemeris_type": 0,
        "meta_classification_type": "U",
        "meta_norad_cat_id": 64202,
        "meta_element_set_no": 999,
        "meta_rev_at_epoch": 412,
        "meta_bstar": 0,
        "meta_mean_motion_dot": -9.7e-07,
        "meta_mean_motion_ddot": 0,
        "tle_line1": "1 64202U 25116A   25346.11800625 -.00000097  00000+0  00000+0 0  9997",
        "tle_line2": "2 64202  55.1053  38.6656 0005560 307.8472  53.3313  2.00558325  4121"
      },
      "geometry": {
        "type": "Point",
        "coordinates": [
          56.524526005267155,
          23.770521448438267
        ]
      }
    },
    {
      "type": "Feature",
      "properties": {
        "norad_id": 65590,
        "name": "COSMOS 2596 (708K)",
        "group": "gnss",
        "lat": -3.7511909314484644,
        "lon": -40.32376577411369,
        "alt_km": 19108.057776390397,
        "timestamp": "2025-12-13T03:42:11.517957+00:00",
        "meta_object_name": "COSMOS 2596 (708K)",
        "meta_object_id": "2025-206B",
        "meta_epoch": "2025-12-10T13:06:28.122048",
        "meta_mean_motion": 2.13100337,
        "meta_eccentricity": 0.00140136,
        "meta_inclination": 64.7453,
        "meta_ra_of_asc_node": 321.5499,
        "meta_arg_of_pericenter": 305.8933,
        "meta_mean_anomaly": 208.9804,
        "meta_ephemeris_type": 0,
        "meta_classification_type": "U",
        "meta_norad_cat_id": 65590,
        "meta_element_set_no": 999,
        "meta_rev_at_epoch": 189,
        "meta_bstar": 0,
        "meta_mean_motion_dot": -5.2e-07,
        "meta_mean_motion_ddot": 0,
        "tle_line1": "1 65590U 25206B   25344.54615882 -.00000052  00000+0  00000+0 0  9993",
        "tle_line2": "2 65590  64.7453 321.5499 0014013 305.8933 208.9804  2.13100337  1898"
      },
      "geometry": {
        "type": "Point",
        "coordinates": [
          -40.32376577411369,
          -3.7511909314484644
        ]
      }
    }
  ]
}